{
  "type": "FeatureCollection",
  "features": [
    {
      "type": "Feature",
      "properties": {
        "norad_id": 38250,
        "name": "BEIDOU-2 M3 (C11)",
        "group": "beidou",
        "lat": 53.69308915955572,
        "lon": 64.42230859894221,
        "alt_km": 21589.53006420449,
        "timestamp": "2025-12-02T19:35:50.820949+00:00",
        "meta_object_name": "BEIDOU-2 M3 (C11)",
        "meta_object_id": "2012-018A",
        "meta_epoch": "2025-12-01T01:13:35.126400",
        "meta_mean_motion": 1.86229725,
        "meta_eccentricity": 0.00245382,
        "meta_inclination": 55.9302,
        "meta_ra_of_asc_node": 311.5507,
        "meta_arg_of_pericenter": 273.3676,
        "meta_mean_anomaly": 86.348,
        "meta_ephemeris_type": 0,
        "meta_classification_type": "U",
        "meta_norad_cat_id": 38250,
        "meta_element_set_no": 999,
        "meta_rev_at_epoch": 9225,
        "meta_bstar": 0,
        "meta_mean_motion_dot": -5.3e-07,
        "meta_mean_motion_ddot": 0,
        "tle_line1": "1 38250U 12018A   25335.05110100 -.00000053  00000+0  00000+0 0  9993",
        "tle_line2": "2 38250  55.9302 311.5507 0024538 273.3676  86.3480  1.86229725 92251"
      },
      "geometry": {
        "type": "Point",
        "coordinates": [
          64.42230859894221,
          53.69308915955572
        ]
      }
    },
    {
      "type": "Feature",
      "properties": {
        "norad_id": 38251,
        "name": "BEIDOU-2 M4 (C12)",
        "group": "beidou",
        "lat": 25.26977926508053,
        "lon": 112.00596951729293,
        "alt_km": 21551.83841793836,
        "timestamp": "2025-12-02T19:35:50.820960+00:00",
        "meta_object_name": "BEIDOU-2 M4 (C12)",
        "meta_object_id": "2012-018B",
        "meta_epoch": "2025-11-30T23:35:43.237248",
        "meta_mean_motion": 1.86229405,
        "meta_eccentricity": 0.00156645,
        "meta_inclination": 55.8317,
        "meta_ra_of_asc_node": 310.7829,
        "meta_arg_of_pericenter": 276.4205,
        "meta_mean_anomaly": 83.3972,
        "meta_ephemeris_type": 0,
        "meta_classification_type": "U",
        "meta_norad_cat_id": 38251,
        "meta_element_set_no": 999,
        "meta_rev_at_epoch": 9225,
        "meta_bstar": 0,
        "meta_mean_motion_dot": -5.3e-07,
        "meta_mean_motion_ddot": 0,
        "tle_line1": "1 38251U 12018B   25334.98313932 -.00000053  00000+0  00000+0 0  9993",
        "tle_line2": "2 38251  55.8317 310.7829 0015664 276.4205  83.3972  1.86229405 92255"
      },
      "geometry": {
        "type": "Point",
        "coordinates": [
          112.00596951729293,
          25.26977926508053
        ]
      }
    },
    {
      "type": "Feature",
      "properties": {
        "norad_id": 38775,
        "name": "BEIDOU-2 M6 (C14)",
        "group": "beidou",
        "lat": -14.123749532406958,
        "lon": 59.76946261505638,
        "alt_km": 21499.864035688348,
        "timestamp": "2025-12-02T19:35:50.820972+00:00",
        "meta_object_name": "BEIDOU-2 M6 (C14)",
        "meta_object_id": "2012-050B",
        "meta_epoch": "2025-12-01T18:25:55.892928",
        "meta_mean_motion": 1.86230731,
        "meta_eccentricity": 0.0010865,
        "meta_inclination": 56.3691,
        "meta_ra_of_asc_node": 69.4317,
        "meta_arg_of_pericenter": 346.4712,
        "meta_mean_anomaly": 13.5024,
        "meta_ephemeris_type": 0,
        "meta_classification_type": "U",
        "meta_norad_cat_id": 38775,
        "meta_element_set_no": 999,
        "meta_rev_at_epoch": 8963,
        "meta_bstar": 0,
        "meta_mean_motion_dot": -4.3e-07,
        "meta_mean_motion_ddot": 0,
        "tle_line1": "1 38775U 12050B   25335.76800802 -.00000043  00000+0  00000+0 0  9993",
        "tle_line2": "2 38775  56.3691  69.4317 0010865 346.4712  13.5024  1.86230731 89631"
      },
      "geometry": {
        "type": "Point",
        "coordinates": [
          59.76946261505638,
          -14.123749532406958
        ]
      }
    },
    {
      "type": "Feature",
      "properties": {
        "norad_id": 38953,
        "name": "BEIDOU-2 G6 (C02)",
        "group": "beidou",
        "lat": 0.993787205458611,
        "lon": 89.95529563830307,
        "alt_km": 35782.65794066375,
        "timestamp": "2025-12-02T19:35:50.820983+00:00",
        "meta_object_name": "BEIDOU-2 G6 (C02)",
        "meta_object_id": "2012-059A",
        "meta_epoch": "2025-12-02T03:54:44.266176",
        "meta_mean_motion": 1.0027097,
        "meta_eccentricity": 0.00072922,
        "meta_inclination": 3.9201,
        "meta_ra_of_asc_node": 75.6056,
        "meta_arg_of_pericenter": 290.7249,
        "meta_mean_anomaly": 207.6781,
        "meta_ephemeris_type": 0,
        "meta_classification_type": "U",
        "meta_norad_cat_id": 38953,
        "meta_element_set_no": 999,
        "meta_rev_at_epoch": 4793,
        "meta_bstar": 0,
        "meta_mean_motion_dot": -1.56e-06,
        "meta_mean_motion_ddot": 0,
        "tle_line1": "1 38953U 12059A   25336.16301234 -.00000156  00000+0  00000+0 0  9995",
        "tle_line2": "2 38953   3.9201  75.6056 0007292 290.7249 207.6781  1.00270970 47937"
      },
      "geometry": {
        "type": "Point",
        "coordinates": [
          89.95529563830307,
          0.993787205458611
        ]
      }
    },
    {
      "type": "Feature",
      "properties": {
        "norad_id": 40748,
        "name": "BEIDOU-3S M2S (C58)",
        "group": "beidou",
        "lat": 9.580859559265514,
        "lon": -44.43641053767297,
        "alt_km": 21536.036628704653,
        "timestamp": "2025-12-02T19:35:50.820995+00:00",
        "meta_object_name": "BEIDOU-3S M2S (C58)",
        "meta_object_id": "2015-037A",
        "meta_epoch": "2025-12-01T04:31:01.292160",
        "meta_mean_motion": 1.86229002,
        "meta_eccentricity": 0.0012493,
        "meta_inclination": 55.0491,
        "meta_ra_of_asc_node": 308.8604,
        "meta_arg_of_pericenter": 267.0141,
        "meta_mean_anomaly": 92.8367,
        "meta_ephemeris_type": 0,
        "meta_classification_type": "U",
        "meta_norad_cat_id": 40748,
        "meta_element_set_no": 999,
        "meta_rev_at_epoch": 7043,
        "meta_bstar": 0,
        "meta_mean_motion_dot": -5.6e-07,
        "meta_mean_motion_ddot": 0,
        "tle_line1": "1 40748U 15037A   25335.18820940 -.00000056  00000+0  00000+0 0  9999",
        "tle_line2": "2 40748  55.0491 308.8604 0012493 267.0141  92.8367  1.86229002 70437"
      },
      "geometry": {
        "type": "Point",
        "coordinates": [
          -44.43641053767297,
          9.580859559265514
        ]
      }
    },
    {
      "type": "Feature",
      "properties": {
        "norad_id": 40749,
        "name": "BEIDOU-3S M1S (C57)",
        "group": "beidou",
        "lat": -29.193865486369322,
        "lon": 151.77504977152324,
        "alt_km": 21536.267399516233,
        "timestamp": "2025-12-02T19:35:50.821006+00:00",
        "meta_object_name": "BEIDOU-3S M1S (C57)",
        "meta_object_id": "2015-037B",
        "meta_epoch": "2025-11-26T01:13:29.678016",
        "meta_mean_motion": 1.8625392,
        "meta_eccentricity": 0.00032681,
        "meta_inclination": 55.0504,
        "meta_ra_of_asc_node": 309.0266,
        "meta_arg_of_pericenter": 354.4635,
        "meta_mean_anomaly": 5.5327,
        "meta_ephemeris_type": 0,
        "meta_classification_type": "U",
        "meta_norad_cat_id": 40749,
        "meta_element_set_no": 999,
        "meta_rev_at_epoch": 7034,
        "meta_bstar": 0,
        "meta_mean_motion_dot": -4e-07,
        "meta_mean_motion_ddot": 0,
        "tle_line1": "1 40749U 15037B   25330.05103794 -.00000040  00000+0  00000+0 0  9995",
        "tle_line2": "2 40749  55.0504 309.0266 0003268 354.4635   5.5327  1.86253920 70342"
      },
      "geometry": {
        "type": "Point",
        "coordinates": [
          151.77504977152324,
          -29.193865486369322
        ]
      }
    },
    {
      "type": "Feature",
      "properties": {
        "norad_id": 40938,
        "name": "BEIDOU-3S IGSO-2S (C56)",
        "group": "beidou",
        "lat": -15.865123260543536,
        "lon": 95.10144347268972,
        "alt_km": 35536.71432386466,
        "timestamp": "2025-12-02T19:35:50.821018+00:00",
        "meta_object_name": "BEIDOU-3S IGSO-2S (C56)",
        "meta_object_id": "2015-053A",
        "meta_epoch": "2025-11-30T14:22:32.938176",
        "meta_mean_motion": 1.00272475,
        "meta_eccentricity": 0.0061056,
        "meta_inclination": 49.5325,
        "meta_ra_of_asc_node": 261.1514,
        "meta_arg_of_pericenter": 188.8099,
        "meta_mean_anomaly": 291.5463,
        "meta_ephemeris_type": 0,
        "meta_classification_type": "U",
        "meta_norad_cat_id": 40938,
        "meta_element_set_no": 999,
        "meta_rev_at_epoch": 3736,
        "meta_bstar": 0,
        "meta_mean_motion_dot": -1.61e-06,
        "meta_mean_motion_ddot": 0,
        "tle_line1": "1 40938U 15053A   25334.59899234 -.00000161  00000+0  00000+0 0  9991",
        "tle_line2": "2 40938  49.5325 261.1514 0061056 188.8099 291.5463  1.00272475 37362"
      },
      "geometry": {
        "type": "Point",
        "coordinates": [
          95.10144347268972,
          -15.865123260543536
        ]
      }
    }
  ]
}